     2.10           G: GLONASS NAV DATA                     RINEX VERSION / TYPE
teqc  2015Jun23                         20210820 01:25:48UTCPGM / RUN BY / DATE
Linux 2.4.21-27.ELsmp|Opteron|gcc -static|Linux x86_64|=+   COMMENT
  2021     7    27    1.396983861923D-09                    CORR TO SYSTEM TIME
                                                            END OF HEADER
16 21  7 28 15 15  0.0-1.861993223429D-05-9.094947017729D-13 5.400000000000D+04
    8.205550292969D+03 2.768430709839D-01 9.313225746155D-10 0.000000000000D+00
    2.354365380859D+04 6.496152877808D-01-9.313225746155D-10-1.000000000000D+00
   -5.087587402344D+03 3.474503517151D+00 0.000000000000D+00 0.000000000000D+00
15 21  7 28 15 15  0.0 1.024352386594D-04 0.000000000000D+00 5.400000000000D+04
   -1.914789550781D+03-2.551059722900D-01 0.000000000000D+00 0.000000000000D+00
    2.167977978516D+04-1.807057380676D+00-9.313225746155D-10 0.000000000000D+00
    1.333474169922D+04 2.906205177307D+00-1.862645149231D-09 0.000000000000D+00
 3 21  7 28 15 15  0.0 4.033837467432D-05 0.000000000000D+00 5.400000000000D+04
   -2.031435888672D+04 8.825607299805D-01-3.725290298462D-09 0.000000000000D+00
    1.334645605469D+04-5.881690979004D-01-0.000000000000D+00 5.000000000000D+00
   -7.608011718750D+03-3.373988151550D+00-0.000000000000D+00 0.000000000000D+00
 4 21  7 28 15 15  0.0 9.783823043108D-05 1.818989403546D-12 5.400000000000D+04
   -1.435711474609D+04-8.641262054443D-01-1.862645149231D-09 0.000000000000D+00
    1.879555126953D+04 9.948692321777D-01-9.313225746155D-10 6.000000000000D+00
    9.572669433594D+03-3.259038925171D+00-1.862645149231D-09 0.000000000000D+00
18 21  7 28 15 15  0.0 8.498970419168D-05 9.094947017729D-13 5.400000000000D+04
   -6.910608398438D+03-3.000863075256D+00-1.862645149231D-09 0.000000000000D+00
    8.562323730469D+03-9.802980422974D-01 0.000000000000D+00-3.000000000000D+00
   -2.300128417969D+04 5.406694412231D-01 1.862645149231D-09 0.000000000000D+00
19 21  7 28 15 15  0.0-1.532603055239D-04-9.094947017729D-13 5.403000000000D+04
    9.571009765625D+03-2.505640029907D+00 0.000000000000D+00 0.000000000000D+00
    1.288975537109D+04-1.062500953674D+00-0.000000000000D+00 3.000000000000D+00
   -1.982566210938D+04-1.901846885681D+00 1.862645149231D-09 0.000000000000D+00
 5 21  7 28 15 15  0.0 7.615331560373D-05 9.094947017729D-13 5.418000000000D+04
   -4.467880859375D+02-2.151302337646D+00 0.000000000000D+00 0.000000000000D+00
    1.380706152344D+04 1.998791694641D+00-9.313225746155D-10 1.000000000000D+00
    2.144913720703D+04-1.334022521973D+00-1.862645149231D-09 0.000000000000D+00
 9 21  7 28 15 15  0.0 5.226582288742D-06 1.818989403546D-12 5.508000000000D+04
    1.224401269531D+04 6.314258575439D-01 9.313225746155D-10 0.000000000000D+00
    1.219484863281D+04 2.492812156677D+00-0.000000000000D+00-2.000000000000D+00
   -1.877263085938D+04 2.021753311157D+00 1.862645149231D-09 0.000000000000D+00
16 21  7 28 15 45  0.0-1.862272620201D-05-9.094947017729D-13 5.580000000000D+04
    8.533488769531D+03 4.792022705078D-02 0.000000000000D+00 0.000000000000D+00
    2.393277099609D+04-2.095375061035D-01-9.313225746155D-10-1.000000000000D+00
    1.283275878906D+03 3.557917594910D+00-0.000000000000D+00 0.000000000000D+00
 9 21  7 28 15 45  0.0 5.230307579041D-06 1.818989403546D-12 5.580000000000D+04
    1.353779736328D+04 7.696886062622D-01 9.313225746155D-10 0.000000000000D+00
    1.610645410156D+04 1.825539588928D+00-9.313225746155D-10-2.000000000000D+00
   -1.445569384766D+04 2.743589401245D+00 9.313225746155D-10 0.000000000000D+00
 3 21  7 28 15 45  0.0 4.033837467432D-05 0.000000000000D+00 5.580000000000D+04
   -1.831933935547D+04 1.291416168213D+00-3.725290298462D-09 0.000000000000D+00
    1.164915234375D+04-1.306124687195D+00 0.000000000000D+00 5.000000000000D+00
   -1.330675488281D+04-2.916576385498D+00 0.000000000000D+00 0.000000000000D+00
 4 21  7 28 15 45  0.0 9.784102439880D-05 1.818989403546D-12 5.580000000000D+04
   -1.526727929688D+04-1.650028228760D-01-2.793967723846D-09 0.000000000000D+00
    2.014841455078D+04 4.699048995972D-01-0.000000000000D+00 6.000000000000D+00
    3.412263183594D+03-3.541463851929D+00-9.313225746155D-10 0.000000000000D+00
 5 21  7 28 15 45  0.0 7.615424692631D-05 9.094947017729D-13 5.580000000000D+04
   -3.794289062500D+03-1.550954818726D+00-0.000000000000D+00 0.000000000000D+00
    1.741355908203D+04 1.961752891541D+00-9.313225746155D-10 1.000000000000D+00
    1.825014013672D+04-2.197429656982D+00-1.862645149231D-09 0.000000000000D+00
15 21  7 28 15 45  0.0 1.024352386594D-04 0.000000000000D+00 5.580000000000D+04
   -2.783941406250D+03-7.294654846191D-01-0.000000000000D+00 0.000000000000D+00
    1.790305029297D+04-2.347236633301D+00-9.313225746155D-10 0.000000000000D+00
    1.798401953125D+04 2.226252555847D+00-1.862645149231D-09 0.000000000000D+00
19 21  7 28 15 45  0.0-1.532621681690D-04-9.094947017729D-13 5.586000000000D+04
    4.589906250000D+03-2.986777305603D+00-0.000000000000D+00 0.000000000000D+00
    1.124002099609D+04-7.401266098022D-01-0.000000000000D+00 3.000000000000D+00
   -2.243876416016D+04-9.828052520752D-01 1.862645149231D-09 0.000000000000D+00
16 21  7 28 16 15  0.0-1.862552016973D-05-9.094947017729D-13 5.760000000000D+04
    8.247322753906D+03-3.975114822388D-01 0.000000000000D+00 0.000000000000D+00
    2.285061572266D+04-9.671564102173D-01-9.313225746155D-10-1.000000000000D+00
    7.554096191406D+03 3.364048957825D+00-9.313225746155D-10 0.000000000000D+00
 9 21  7 28 16 15  0.0 5.234964191914D-06 2.728484105319D-12 5.760000000000D+04
    1.487175732422D+04 6.708116531372D-01 0.000000000000D+00 0.000000000000D+00
    1.869766308594D+04 1.043553352356D+00-9.313225746155D-10-2.000000000000D+00
   -9.023487304688D+03 3.253017425537D+00 0.000000000000D+00 0.000000000000D+00
 3 21  7 28 16 15  0.0 4.033837467432D-05-0.000000000000D+00 5.760000000000D+04
   -1.582649072266D+04 1.433115959167D+00-2.793967723846D-09 0.000000000000D+00
    8.648424804688D+03-2.017265319824D+00 9.313225746155D-10 5.000000000000D+00
   -1.797117431641D+04-2.232251167297D+00 9.313225746155D-10 0.000000000000D+00
 4 21  7 28 16 15  0.0 9.784381836653D-05 1.818989403546D-12 5.760000000000D+04
   -1.504389062500D+04 3.805084228516D-01-3.725290298462D-09 0.000000000000D+00
    2.037038623047D+04-2.485799789429D-01 0.000000000000D+00 6.000000000000D+00
   -3.011936523438D+03-3.550162315369D+00-0.000000000000D+00 0.000000000000D+00
 5 21  7 28 16 15  0.0 7.615610957146D-05 9.094947017729D-13 5.760000000000D+04
   -6.002067382812D+03-9.037914276123D-01-1.862645149231D-09 0.000000000000D+00
    2.069801025391D+04 1.640686035156D+00-9.313225746155D-10 1.000000000000D+00
    1.364030712891D+04-2.891409873962D+00-1.862645149231D-09 0.000000000000D+00
15 21  7 28 16 15  0.0 1.024352386594D-04 0.000000000000D+00 5.760000000000D+04
   -4.578475097656D+03-1.266027450562D+00-0.000000000000D+00 0.000000000000D+00
    1.339601757812D+04-2.611736297607D+00-9.313225746155D-10 0.000000000000D+00
    2.124617285156D+04 1.374941825867D+00-2.793967723846D-09 0.000000000000D+00
19 21  7 28 16 15  0.0-1.532649621367D-04-9.094947017729D-13 5.829000000000D+04
   -1.010232421875D+03-3.184099197388D+00-9.313225746155D-10 0.000000000000D+00
    1.030647167969D+04-2.832307815552D-01 0.000000000000D+00 3.000000000000D+00
   -2.331823535156D+04 1.191902160645D-02 1.862645149231D-09 0.000000000000D+00
18 21  7 28 16 15  0.0 8.499342948198D-05 9.094947017729D-13 5.934000000000D+04
   -1.705052197266D+04-2.430392265320D+00-3.725290298462D-09 0.000000000000D+00
    6.851899902344D+03-1.254081726074D-03 9.313225746155D-10-3.000000000000D+00
   -1.766123925781D+04 2.348955154419D+00 9.313225746155D-10 0.000000000000D+00
16 21  7 28 16 45  0.0-1.862831413746D-05-9.094947017729D-13 5.940000000000D+04
    7.012087890625D+03-9.925317764282D-01-0.000000000000D+00 0.000000000000D+00
    2.056985937500D+04-1.527844429016D+00-9.313225746155D-10-1.000000000000D+00
    1.323620410156D+04 2.908140182495D+00-1.862645149231D-09 0.000000000000D+00
 9 21  7 28 16 45  0.0 5.239620804787D-06 2.728484105319D-12 5.940000000000D+04
    1.580376660156D+04 3.251657485962D-01 0.000000000000D+00 0.000000000000D+00
    1.986121630859D+04 2.580718994141D-01-9.313225746155D-10-2.000000000000D+00
   -2.895866210938D+03 3.511371612549D+00-0.000000000000D+00 0.000000000000D+00
 4 21  7 28 16 45  0.0 9.784754365683D-05 1.818989403546D-12 5.940000000000D+04
   -1.403358007812D+04 7.005252838135D-01-3.725290298462D-09 0.000000000000D+00
    1.919322167969D+04-1.066899299622D+00 9.313225746155D-10 6.000000000000D+00
   -9.202986816406D+03-3.284027099609D+00 0.000000000000D+00 0.000000000000D+00
 5 21  7 28 16 45  0.0 7.615704089403D-05 9.094947017729D-13 5.940000000000D+04
   -7.086920410156D+03-3.210802078247D-01-1.862645149231D-09 0.000000000000D+00
    2.316171289062D+04 1.057237625122D+00-0.000000000000D+00 1.000000000000D+00
    7.975406250000D+03-3.362065315247D+00-1.862645149231D-09 0.000000000000D+00
18 21  7 28 16 45  0.0 8.499529212713D-05 9.094947017729D-13 5.940000000000D+04
   -2.083717871094D+04-1.741657257080D+00-3.725290298462D-09 0.000000000000D+00
    7.163948730469D+03 3.159618377686D-01 1.862645149231D-09-3.000000000000D+00
   -1.280335888672D+04 3.013598442078D+00 0.000000000000D+00 0.000000000000D+00
19 21  7 28 16 45  0.0-1.532677561045D-04-9.094947017729D-13 5.940000000000D+04
   -6.681647460938D+03-3.064379692078D+00-1.862645149231D-09 0.000000000000D+00
    1.023695361328D+04 2.011318206787D-01 9.313225746155D-10 3.000000000000D+00
   -2.239650683594D+04 1.005563735962D+00 1.862645149231D-09 0.000000000000D+00
15 21  7 28 16 45  0.0 1.024361699820D-04 0.000000000000D+00 5.961000000000D+04
   -7.314347656250D+03-1.757238388062D+00-9.313225746155D-10 0.000000000000D+00
    8.677890136719D+03-2.582634925842D+00-0.000000000000D+00 0.000000000000D+00
    2.287017675781D+04 4.178457260132D-01-2.793967723846D-09 0.000000000000D+00
